[
    {
        "Altitude(m)": 702878.9439883255,
        "Argument of Periapsis(deg)": 0.006834072711976239,
        "Eccentricity": 0.0,
        "Inclination(deg)": 45.0,
        "Latitude(deg)": 17.969786119578867,
        "Longitude(deg)": 165.72821007976165,
        "Mean Anomaly(deg)": 154.19262998848848,
        "RAAN(deg)": 104.99354883512508,
        "Satellite Name": "Constellation 1 471",
        "Satellite Number": 471,
        "Semi-Major Axis(m)": 7083131.272910544,
        "Time(s)": 114
    },
    {
        "Altitude(m)": 702876.3955022456,
        "Argument of Periapsis(deg)": 0.006894020718221645,
        "Eccentricity": 0.0,
        "Inclination(deg)": 45.0,
        "Latitude(deg)": 17.9288969451558,
        "Longitude(deg)": 165.77144389709545,
        "Mean Anomaly(deg)": 154.2533311287384,
        "RAAN(deg)": 104.99349224595952,
        "Satellite Name": "Constellation 1 471",
        "Satellite Number": 471,
        "Semi-Major Axis(m)": 7083131.272910544,
        "Time(s)": 115
    },
    {
        "Altitude(m)": 702873.8624665901,
        "Argument of Periapsis(deg)": 0.006953968724467052,
        "Eccentricity": 0.0,
        "Inclination(deg)": 45.0,
        "Latitude(deg)": 17.887996102619212,
        "Longitude(deg)": 165.81465597501528,
        "Mean Anomaly(deg)": 154.31403226898826,
        "RAAN(deg)": 104.99343565679393,
        "Satellite Name": "Constellation 1 471",
        "Satellite Number": 471,
        "Semi-Major Axis(m)": 7083131.272910544,
        "Time(s)": 116
    },
    {
        "Altitude(m)": 702871.3449099718,
        "Argument of Periapsis(deg)": 0.007013916730712457,
        "Eccentricity": 0.0,
        "Inclination(deg)": 45.0,
        "Latitude(deg)": 17.847083625582286,
        "Longitude(deg)": 165.85784637017247,
        "Mean Anomaly(deg)": 154.37473340923816,
        "RAAN(deg)": 104.99337906762837,
        "Satellite Name": "Constellation 1 471",
        "Satellite Number": 471,
        "Semi-Major Axis(m)": 7083131.272910544,
        "Time(s)": 117
    },
    {
        "Altitude(m)": 702868.8428609584,
        "Argument of Periapsis(deg)": 0.007073864736957864,
        "Eccentricity": 0.0,
        "Inclination(deg)": 45.0,
        "Latitude(deg)": 17.806159547615568,
        "Longitude(deg)": 165.90101513918754,
        "Mean Anomaly(deg)": 154.43543454948812,
        "RAAN(deg)": 104.9933224784628,
        "Satellite Name": "Constellation 1 471",
        "Satellite Number": 471,
        "Semi-Major Axis(m)": 7083131.272910544,
        "Time(s)": 118
    },
    {
        "Altitude(m)": 702866.3563480495,
        "Argument of Periapsis(deg)": 0.0071338127432032696,
        "Eccentricity": 0.0,
        "Inclination(deg)": 45.0,
        "Latitude(deg)": 17.76522390224763,
        "Longitude(deg)": 165.9441621705528,
        "Mean Anomaly(deg)": 154.496135689738,
        "RAAN(deg)": 104.99326588929723,
        "Satellite Name": "Constellation 1 471",
        "Satellite Number": 471,
        "Semi-Major Axis(m)": 7083131.272910544,
        "Time(s)": 119
    },
    {
        "Altitude(m)": 702863.8853996831,
        "Argument of Periapsis(deg)": 0.007193760749448674,
        "Eccentricity": 0.0,
        "Inclination(deg)": 45.0,
        "Latitude(deg)": 17.72427672296341,
        "Longitude(deg)": 165.98728785702139,
        "Mean Anomaly(deg)": 154.55683682998784,
        "RAAN(deg)": 104.99320930013167,
        "Satellite Name": "Constellation 1 471",
        "Satellite Number": 471,
        "Semi-Major Axis(m)": 7083131.272910544,
        "Time(s)": 120
    },
    {
        "Altitude(m)": 702861.430044234,
        "Argument of Periapsis(deg)": 0.007253708755694079,
        "Eccentricity": 0.0,
        "Inclination(deg)": 45.0,
        "Latitude(deg)": 17.683318043206352,
        "Longitude(deg)": 166.0303920870244,
        "Mean Anomaly(deg)": 154.61753797023778,
        "RAAN(deg)": 104.99315271096609,
        "Satellite Name": "Constellation 1 471",
        "Satellite Number": 471,
        "Semi-Major Axis(m)": 7083131.272910544,
        "Time(s)": 121
    },
    {
        "Altitude(m)": 702858.990310022,
        "Argument of Periapsis(deg)": 0.0073136567619394854,
        "Eccentricity": 0.0,
        "Inclination(deg)": 45.0,
        "Latitude(deg)": 17.64234789637769,
        "Longitude(deg)": 166.073474917059,
        "Mean Anomaly(deg)": 154.67823911048765,
        "RAAN(deg)": 104.99309612180052,
        "Satellite Name": "Constellation 1 471",
        "Satellite Number": 471,
        "Semi-Major Axis(m)": 7083131.272910544,
        "Time(s)": 122
    },
    {
        "Altitude(m)": 702856.5662252988,
        "Argument of Periapsis(deg)": 0.0073736047681848904,
        "Eccentricity": 0.0,
        "Inclination(deg)": 45.0,
        "Latitude(deg)": 17.601366315836312,
        "Longitude(deg)": 166.11653640359162,
        "Mean Anomaly(deg)": 154.73894025073758,
        "RAAN(deg)": 104.99303953263497,
        "Satellite Name": "Constellation 1 471",
        "Satellite Number": 471,
        "Semi-Major Axis(m)": 7083131.272910544,
        "Time(s)": 123
    },
    {
        "Altitude(m)": 702854.1578182512,
        "Argument of Periapsis(deg)": 0.007433552774430298,
        "Eccentricity": 0.0,
        "Inclination(deg)": 45.0,
        "Latitude(deg)": 17.560373334899268,
        "Longitude(deg)": 166.15957660305773,
        "Mean Anomaly(deg)": 154.79964139098743,
        "RAAN(deg)": 104.9929829434694,
        "Satellite Name": "Constellation 1 471",
        "Satellite Number": 471,
        "Semi-Major Axis(m)": 7083131.272910544,
        "Time(s)": 124
    },
    {
        "Altitude(m)": 702851.7651170165,
        "Argument of Periapsis(deg)": 0.007493500780675703,
        "Eccentricity": 0.0,
        "Inclination(deg)": 45.0,
        "Latitude(deg)": 17.519368986841645,
        "Longitude(deg)": 166.202595571862,
        "Mean Anomaly(deg)": 154.86034253123742,
        "RAAN(deg)": 104.99292635430382,
        "Satellite Name": "Constellation 1 471",
        "Satellite Number": 471,
        "Semi-Major Axis(m)": 7083131.272910544,
        "Time(s)": 125
    },
    {
        "Altitude(m)": 702849.3881496589,
        "Argument of Periapsis(deg)": 0.007553448786921108,
        "Eccentricity": 0.0,
        "Inclination(deg)": 45.0,
        "Latitude(deg)": 17.478353304897155,
        "Longitude(deg)": 166.24559319828091,
        "Mean Anomaly(deg)": 154.92104367148727,
        "RAAN(deg)": 104.99286976513825,
        "Satellite Name": "Constellation 1 471",
        "Satellite Number": 471,
        "Semi-Major Axis(m)": 7083131.272910544,
        "Time(s)": 126
    },
    {
        "Altitude(m)": 702847.0269441808,
        "Argument of Periapsis(deg)": 0.007613396793166514,
        "Eccentricity": 0.0,
        "Inclination(deg)": 45.0,
        "Latitude(deg)": 17.43732632225689,
        "Longitude(deg)": 166.28856987485165,
        "Mean Anomaly(deg)": 154.98174481173714,
        "RAAN(deg)": 104.99281317597269,
        "Satellite Name": "Constellation 1 471",
        "Satellite Number": 471,
        "Semi-Major Axis(m)": 7083131.272910544,
        "Time(s)": 127
    },
    {
        "Altitude(m)": 702844.6815285246,
        "Argument of Periapsis(deg)": 0.007673344799411918,
        "Eccentricity": 0.0,
        "Inclination(deg)": 45.0,
        "Latitude(deg)": 17.396288072071343,
        "Longitude(deg)": 166.33152548978885,
        "Mean Anomaly(deg)": 155.04244595198713,
        "RAAN(deg)": 104.99275658680712,
        "Satellite Name": "Constellation 1 471",
        "Satellite Number": 471,
        "Semi-Major Axis(m)": 7083131.272910544,
        "Time(s)": 128
    },
    {
        "Altitude(m)": 702842.3519305697,
        "Argument of Periapsis(deg)": 0.007733292805657325,
        "Eccentricity": 0.0,
        "Inclination(deg)": 45.0,
        "Latitude(deg)": 17.355238587449357,
        "Longitude(deg)": 166.37446009937344,
        "Mean Anomaly(deg)": 155.10314709223698,
        "RAAN(deg)": 104.99269999764155,
        "Satellite Name": "Constellation 1 471",
        "Satellite Number": 471,
        "Semi-Major Axis(m)": 7083131.272910544,
        "Time(s)": 129
    },
    {
        "Altitude(m)": 702840.0381781348,
        "Argument of Periapsis(deg)": 0.00779324081190273,
        "Eccentricity": 0.0,
        "Inclination(deg)": 45.0,
        "Latitude(deg)": 17.314177901458372,
        "Longitude(deg)": 166.41737375985542,
        "Mean Anomaly(deg)": 155.16384823248686,
        "RAAN(deg)": 104.99264340847597,
        "Satellite Name": "Constellation 1 471",
        "Satellite Number": 471,
        "Semi-Major Axis(m)": 7083131.272910544,
        "Time(s)": 130
    },
    {
        "Altitude(m)": 702837.7402989634,
        "Argument of Periapsis(deg)": 0.007853188818148135,
        "Eccentricity": 0.0,
        "Inclination(deg)": 45.0,
        "Latitude(deg)": 17.273106047124706,
        "Longitude(deg)": 166.46026652745365,
        "Mean Anomaly(deg)": 155.22454937273673,
        "RAAN(deg)": 104.9925868193104,
        "Satellite Name": "Constellation 1 471",
        "Satellite Number": 471,
        "Semi-Major Axis(m)": 7083131.272910544,
        "Time(s)": 131
    },
    {
        "Altitude(m)": 702835.4583207574,
        "Argument of Periapsis(deg)": 0.007913136824393542,
        "Eccentricity": 0.0,
        "Inclination(deg)": 45.0,
        "Latitude(deg)": 17.2320230574336,
        "Longitude(deg)": 166.50313845835615,
        "Mean Anomaly(deg)": 155.2852505129867,
        "RAAN(deg)": 104.99253023014485,
        "Satellite Name": "Constellation 1 471",
        "Satellite Number": 471,
        "Semi-Major Axis(m)": 7083131.272910544,
        "Time(s)": 132
    }
]